ONEWEB-0331             
1 49198U 21083N   24149.48860413  .00000079  00000+0  16641-3 0  9995
2 49198  87.9129 124.6949 0001895  82.2544 277.8803 13.18683683132482
ONEWEB-0333             
1 49199U 21083P   24149.17207360  .00000159  00000+0  40030-3 0  9996
2 49199  87.8918 109.5459 0002112  87.8336 272.3035 13.13468994133747
ONEWEB-0334             
1 49200U 21083Q   24149.49753014  .00000063  00000+0  12204-3 0  9992
2 49200  87.9215  63.6436 0002318  99.3402 260.7994 13.20770037139121
ONEWEB-0335             
1 49201U 21083R   24149.16729484 -.00000121  00000+0 -36604-3 0  9998
2 49201  87.8916 109.5353 0002147  77.0538 283.0831 13.13468389133757
ONEWEB-0336             
1 49202U 21083S   24149.44186913 -.00000129  00000+0 -38804-3 0  9996
2 49202  87.8919 109.4773 0002064  91.0296 269.1069 13.13468773133790
ONEWEB-0337             
1 49203U 21083T   24148.91799982 -.00000241  00000+0 -69369-3 0  9999
2 49203  87.8917 109.5803 0002090  79.1682 280.9682 13.13472471132420
ONEWEB-0338             
1 49204U 21083U   24148.82203060 -.00000001  00000+0 -35461-4 0  9998
2 49204  87.9222  63.7604 0002316  85.3862 274.7536 13.20769800137765
ONEWEB-0339             
1 49205U 21083V   24149.15778612 -.00000146  00000+0 -43377-3 0  9990
2 49205  87.8915 109.5280 0002165  81.3656 278.7719 13.13470979133730
